start=new Date('2022-01-13T00:00:00.000Z').valueOf();
sats=[{"MEAN_ELEMENT_THEORY":"SGP4","BSTAR":"0.00038525000000","SITE":"AFETR","LAUNCH_DATE":"2020-01-07","MEAN_ANOMALY":"282.4344","MEAN_MOTION_DDOT":"0.0000000000000","EPOCH":"2022-01-12T10:46:10.776576","PERIAPSIS":"536.980","FILE":"3270709","OBJECT_ID":"2020-001BB","REF_FRAME":"TEME","PERIOD":"95.402","MEAN_MOTION":"15.09401007","REV_AT_EPOCH":"11251","OBJECT_TYPE":"PAYLOAD","EPHEMERIS_TYPE":"0","OBJECT_NAME":"STARLINK-1085","NORAD_CAT_ID":"44963","INCLINATION":"52.9989","MEAN_MOTION_DOT":"0.00005943","APOAPSIS":"539.082","GP_ID":"193731143","ECCENTRICITY":"0.00015200","RA_OF_ASC_NODE":"272.3872","COUNTRY_CODE":"US","ELEMENT_SET_NO":"999","RCS_SIZE":"LARGE","CLASSIFICATION_TYPE":"U","DECAY_DATE":null,"TLE_LINE1":"1 44963U 20001BB  22012.44873584  .00005943  00000-0  38525-3 0  9996","CENTER_NAME":"EARTH","ARG_OF_PERICENTER":"77.6816","SEMIMAJOR_AXIS":"6916.166","TIME_SYSTEM":"UTC","TLE_LINE2":"2 44963  52.9989 272.3872 0001520  77.6816 282.4344 15.09401007112518"},{"INCLINATION":"53.0539","MEAN_MOTION_DOT":"-0.00001665","OBJECT_NAME":"STARLINK-1086","OBJECT_TYPE":"PAYLOAD","NORAD_CAT_ID":"44964","EPHEMERIS_TYPE":"0","GP_ID":"193731395","ECCENTRICITY":"0.00020690","APOAPSIS":"548.681","RA_OF_ASC_NODE":"277.8535","COUNTRY_CODE":"US","ELEMENT_SET_NO":"999","RCS_SIZE":"LARGE","CLASSIFICATION_TYPE":"U","DECAY_DATE":null,"TLE_LINE1":"1 44964U 20001BC  22012.43227535 -.00001665  00000-0 -92889-4 0  9998","CENTER_NAME":"EARTH","ARG_OF_PERICENTER":"73.5307","SEMIMAJOR_AXIS":"6925.383","TIME_SYSTEM":"UTC","TLE_LINE2":"2 44964  53.0539 277.8535 0002069  73.5307 286.5909 15.06388671111729","BSTAR":"-0.00009288900000","MEAN_ELEMENT_THEORY":"SGP4","SITE":"AFETR","LAUNCH_DATE":"2020-01-07","MEAN_ANOMALY":"286.5909","MEAN_MOTION_DDOT":"0.0000000000000","EPOCH":"2022-01-12T10:22:28.590240","PERIAPSIS":"545.815","FILE":"3270709","OBJECT_ID":"2020-001BC","PERIOD":"95.593","REF_FRAME":"TEME","MEAN_MOTION":"15.06388671","REV_AT_EPOCH":"11172"},{"PERIOD":"95.592","REF_FRAME":"TEME","MEAN_MOTION":"15.06400464","REV_AT_EPOCH":"11172","EPOCH":"2022-01-12T10:54:18.133056","PERIAPSIS":"545.799","FILE":"3270709","OBJECT_ID":"2020-001BE","MEAN_ANOMALY":"294.7107","MEAN_MOTION_DDOT":"0.0000000000000","BSTAR":"0.00003166800000","MEAN_ELEMENT_THEORY":"SGP4","SITE":"AFETR","LAUNCH_DATE":"2020-01-07","SEMIMAJOR_AXIS":"6925.347","TIME_SYSTEM":"UTC","TLE_LINE2":"2 44966  53.0551 277.7541 0002041  65.4094 294.7107 15.06400464111720","TLE_LINE1":"1 44966U 20001BE  22012.45437654  .00000190  00000-0  31668-4 0  9995","DECAY_DATE":null,"CENTER_NAME":"EARTH","ARG_OF_PERICENTER":"65.4094","ELEMENT_SET_NO":"999","RCS_SIZE":"LARGE","CLASSIFICATION_TYPE":"U","MEAN_MOTION_DOT":"0.00000190","INCLINATION":"53.0551","EPHEMERIS_TYPE":"0","OBJECT_TYPE":"PAYLOAD","OBJECT_NAME":"STARLINK-1088","NORAD_CAT_ID":"44966","GP_ID":"193732646","ECCENTRICITY":"0.00020410","APOAPSIS":"548.626","RA_OF_ASC_NODE":"277.7541","COUNTRY_CODE":"US"},{"TIME_SYSTEM":"UTC","SEMIMAJOR_AXIS":"6925.350","TLE_LINE2":"2 44967  53.0552 279.1536 0002146  58.1044 302.0153 15.06399381111686","DECAY_DATE":null,"TLE_LINE1":"1 44967U 20001BF  22012.14476316 -.00001760  00000-0 -99235-4 0  9990","ARG_OF_PERICENTER":"58.1044","CENTER_NAME":"EARTH","ELEMENT_SET_NO":"999","CLASSIFICATION_TYPE":"U","RCS_SIZE":"LARGE","APOAPSIS":"548.702","GP_ID":"193732397","ECCENTRICITY":"0.00021460","OBJECT_NAME":"STARLINK-1089","OBJECT_TYPE":"PAYLOAD","EPHEMERIS_TYPE":"0","NORAD_CAT_ID":"44967","MEAN_MOTION_DOT":"-0.00001760","INCLINATION":"53.0552","COUNTRY_CODE":"US","RA_OF_ASC_NODE":"279.1536","MEAN_MOTION":"15.06399381","REF_FRAME":"TEME","PERIOD":"95.592","REV_AT_EPOCH":"11168","PERIAPSIS":"545.729","EPOCH":"2022-01-12T03:28:27.537024","OBJECT_ID":"2020-001BF","FILE":"3270709","MEAN_ANOMALY":"302.0153","MEAN_MOTION_DDOT":"0.0000000000000","SITE":"AFETR","MEAN_ELEMENT_THEORY":"SGP4","BSTAR":"-0.00009923500000","LAUNCH_DATE":"2020-01-07"},{"ELEMENT_SET_NO":"999","RCS_SIZE":"LARGE","CLASSIFICATION_TYPE":"U","MEAN_MOTION_DOT":"-0.00001047","INCLINATION":"53.0552","OBJECT_TYPE":"PAYLOAD","EPHEMERIS_TYPE":"0","NORAD_CAT_ID":"44968","OBJECT_NAME":"STARLINK-1090","GP_ID":"193731643","ECCENTRICITY":"0.00019940","APOAPSIS":"548.598","RA_OF_ASC_NODE":"279.1621","COUNTRY_CODE":"US","SEMIMAJOR_AXIS":"6925.352","TIME_SYSTEM":"UTC","TLE_LINE2":"2 44968  53.0552 279.1621 0001994  57.9696 302.1486 15.06398778111681","TLE_LINE1":"1 44968U 20001BG  22012.14107530 -.00001047  00000-0 -51412-4 0  9993","DECAY_DATE":null,"CENTER_NAME":"EARTH","ARG_OF_PERICENTER":"57.9696","MEAN_ANOMALY":"302.1486","MEAN_MOTION_DDOT":"0.0000000000000","BSTAR":"-0.00005141200000","MEAN_ELEMENT_THEORY":"SGP4","SITE":"AFETR","LAUNCH_DATE":"2020-01-07","PERIOD":"95.592","REF_FRAME":"TEME","MEAN_MOTION":"15.06398778","REV_AT_EPOCH":"11168","EPOCH":"2022-01-12T03:23:08.905920","PERIAPSIS":"545.836","FILE":"3270709","OBJECT_ID":"2020-001BG"},{"PERIOD":"95.593","REF_FRAME":"TEME","MEAN_MOTION":"15.06393968","REV_AT_EPOCH":"11172","EPOCH":"2022-01-12T11:10:14.010816","PERIAPSIS":"545.863","FILE":"3270709","OBJECT_ID":"2020-001BH","MEAN_ANOMALY":"296.7334","MEAN_MOTION_DDOT":"0.0000000000000","BSTAR":"0.00004822400000","MEAN_ELEMENT_THEORY":"SGP4","SITE":"AFETR","LAUNCH_DATE":"2020-01-07","TIME_SYSTEM":"UTC","SEMIMAJOR_AXIS":"6925.367","TLE_LINE2":"2 44969  53.0547 277.7047 0001977  63.3858 296.7334 15.06393968111725","TLE_LINE1":"1 44969U 20001BH  22012.46543994  .00000437  00000-0  48224-4 0  9994","DECAY_DATE":null,"CENTER_NAME":"EARTH","ARG_OF_PERICENTER":"63.3858","ELEMENT_SET_NO":"999","RCS_SIZE":"LARGE","CLASSIFICATION_TYPE":"U","INCLINATION":"53.0547","MEAN_MOTION_DOT":"0.00000437","OBJECT_TYPE":"PAYLOAD","NORAD_CAT_ID":"44969","OBJECT_NAME":"STARLINK-1092","EPHEMERIS_TYPE":"0","ECCENTRICITY":"0.00019770","GP_ID":"193731895","APOAPSIS":"548.601","RA_OF_ASC_NODE":"277.7047","COUNTRY_CODE":"US"},{"ELEMENT_SET_NO":"999","CLASSIFICATION_TYPE":"U","RCS_SIZE":"LARGE","APOAPSIS":"548.554","GP_ID":"193732147","ECCENTRICITY":"0.00019220","EPHEMERIS_TYPE":"0","OBJECT_TYPE":"PAYLOAD","OBJECT_NAME":"STARLINK-1093","NORAD_CAT_ID":"44970","INCLINATION":"53.0532","MEAN_MOTION_DOT":"-0.00001619","COUNTRY_CODE":"US","RA_OF_ASC_NODE":"277.8116","SEMIMAJOR_AXIS":"6925.358","TIME_SYSTEM":"UTC","TLE_LINE2":"2 44970  53.0532 277.8116 0001922  68.3674 291.7520 15.06396982111710","DECAY_DATE":null,"TLE_LINE1":"1 44970U 20001BJ  22012.44333100 -.00001619  00000-0 -89804-4 0  9994","ARG_OF_PERICENTER":"68.3674","CENTER_NAME":"EARTH","MEAN_ANOMALY":"291.7520","MEAN_MOTION_DDOT":"0.0000000000000","SITE":"AFETR","MEAN_ELEMENT_THEORY":"SGP4","BSTAR":"-0.00008980400000","LAUNCH_DATE":"2020-01-07","MEAN_MOTION":"15.06396982","REF_FRAME":"TEME","PERIOD":"95.592","REV_AT_EPOCH":"11171","PERIAPSIS":"545.892","EPOCH":"2022-01-12T10:38:23.798400","OBJECT_ID":"2020-001BJ","FILE":"3270709"},{"COUNTRY_CODE":"US","RA_OF_ASC_NODE":"279.1167","ECCENTRICITY":"0.00021490","GP_ID":"193732897","APOAPSIS":"548.718","INCLINATION":"53.0542","MEAN_MOTION_DOT":"-0.00001769","OBJECT_TYPE":"PAYLOAD","OBJECT_NAME":"STARLINK-1107","EPHEMERIS_TYPE":"0","NORAD_CAT_ID":"44972","CLASSIFICATION_TYPE":"U","RCS_SIZE":"LARGE","ELEMENT_SET_NO":"999","ARG_OF_PERICENTER":"63.3803","CENTER_NAME":"EARTH","DECAY_DATE":null,"TLE_LINE1":"1 44972U 20001BL  22012.14845677 -.00001769  00000-0 -99903-4 0  9997","TLE_LINE2":"2 44972  53.0542 279.1167 0002149  63.3803 296.7406 15.06394855111686","SEMIMAJOR_AXIS":"6925.364","TIME_SYSTEM":"UTC","LAUNCH_DATE":"2020-01-07","SITE":"AFETR","BSTAR":"-0.00009990300000","MEAN_ELEMENT_THEORY":"SGP4","MEAN_MOTION_DDOT":"0.0000000000000","MEAN_ANOMALY":"296.7406","OBJECT_ID":"2020-001BL","FILE":"3270709","PERIAPSIS":"545.741","EPOCH":"2022-01-12T03:33:46.664928","REV_AT_EPOCH":"11168","MEAN_MOTION":"15.06394855","PERIOD":"95.592","REF_FRAME":"TEME"},{"NORAD_CAT_ID":"44973","OBJECT_TYPE":"PAYLOAD","OBJECT_NAME":"STARLINK-1115","EPHEMERIS_TYPE":"0","INCLINATION":"53.0561","MEAN_MOTION_DOT":"-0.00001613","APOAPSIS":"548.767","ECCENTRICITY":"0.00022130","GP_ID":"193731144","RA_OF_ASC_NODE":"277.7472","COUNTRY_CODE":"US","ELEMENT_SET_NO":"999","RCS_SIZE":"LARGE","CLASSIFICATION_TYPE":"U","TLE_LINE1":"1 44973U 20001BM  22012.45807195 -.00001613  00000-0 -89390-4 0  9992","DECAY_DATE":null,"CENTER_NAME":"EARTH","ARG_OF_PERICENTER":"69.0818","SEMIMAJOR_AXIS":"6925.369","TIME_SYSTEM":"UTC","TLE_LINE2":"2 44973  53.0561 277.7472 0002213  69.0818 291.0408 15.06393217111728","MEAN_ELEMENT_THEORY":"SGP4","BSTAR":"-0.00008939000000","SITE":"AFETR","LAUNCH_DATE":"2020-01-07","MEAN_ANOMALY":"291.0408","MEAN_MOTION_DDOT":"0.0000000000000","EPOCH":"2022-01-12T10:59:37.416480","PERIAPSIS":"545.702","FILE":"3270709","OBJECT_ID":"2020-001BM","REF_FRAME":"TEME","PERIOD":"95.593","MEAN_MOTION":"15.06393217","REV_AT_EPOCH":"11172"},{"ARG_OF_PERICENTER":"66.2607","CENTER_NAME":"EARTH","DECAY_DATE":null,"TLE_LINE1":"1 45044U 20006A   22012.56495599  .00001002  00000-0  86152-4 0  9993","TLE_LINE2":"2 45044  53.0540 237.2634 0002253  66.2607 293.8618 15.06399762108073","SEMIMAJOR_AXIS":"6925.349","TIME_SYSTEM":"UTC","COUNTRY_CODE":"US","RA_OF_ASC_NODE":"237.2634","APOAPSIS":"548.775","ECCENTRICITY":"0.00022530","GP_ID":"193731650","EPHEMERIS_TYPE":"0","OBJECT_TYPE":"PAYLOAD","OBJECT_NAME":"STARLINK-1132","NORAD_CAT_ID":"45044","INCLINATION":"53.0540","MEAN_MOTION_DOT":"0.00001002","CLASSIFICATION_TYPE":"U","RCS_SIZE":"LARGE","ELEMENT_SET_NO":"999","OBJECT_ID":"2020-006A","FILE":"3270709","PERIAPSIS":"545.654","EPOCH":"2022-01-12T13:33:32.197536","REV_AT_EPOCH":"10807","MEAN_MOTION":"15.06399762","REF_FRAME":"TEME","PERIOD":"95.592","LAUNCH_DATE":"2020-01-29","SITE":"AFETR","MEAN_ELEMENT_THEORY":"SGP4","BSTAR":"0.00008615200000","MEAN_MOTION_DDOT":"0.0000000000000","MEAN_ANOMALY":"293.8618"}];
